LEMUR-2-DEVERILL-M-T    
1 57391U 23100F   26068.51998373  .00028620  00000+0  84982-3 0  9999
2 57391  99.4583  78.9092 0007975  29.3685 330.7998 15.34744564145935
STARLINK-30924          
1 58412U 23180L   26068.55260200  .00000678  00000+0  30114-4 0  9999
2 58412  43.0016 265.3714 0001138 269.9780  90.0943 15.32095286129343
