[{"OBJECT_NAME":"LEMUR-2-DEVERILL-M-T","OBJECT_ID":"2023-100F","EPOCH":"2026-03-09T12:28:46.594272","MEAN_MOTION":15.34744564,"ECCENTRICITY":0.00079755,"INCLINATION":99.4583,"RA_OF_ASC_NODE":78.9092,"ARG_OF_PERICENTER":29.3685,"MEAN_ANOMALY":330.7998,"EPHEMERIS_TYPE":0,"CLASSIFICATION_TYPE":"U","NORAD_CAT_ID":57391,"ELEMENT_SET_NO":999,"REV_AT_EPOCH":14593,"BSTAR":0.0008498245,"MEAN_MOTION_DOT":0.0002862,"MEAN_MOTION_DDOT":0},{"OBJECT_NAME":"STARLINK-30924","OBJECT_ID":"2023-180L","EPOCH":"2026-03-09T13:15:44.812800","MEAN_MOTION":15.32095286,"ECCENTRICITY":0.00011382,"INCLINATION":43.0016,"RA_OF_ASC_NODE":265.3714,"ARG_OF_PERICENTER":269.978,"MEAN_ANOMALY":90.0943,"EPHEMERIS_TYPE":0,"CLASSIFICATION_TYPE":"U","NORAD_CAT_ID":58412,"ELEMENT_SET_NO":999,"REV_AT_EPOCH":12934,"BSTAR":3.0113773e-5,"MEAN_MOTION_DOT":6.78e-6,"MEAN_MOTION_DDOT":0}]
